NORAD_CAT_ID,OBJECT_NAME,OBJECT_TYPE,EPOCH,MEAN_MOTION,ECCENTRICITY,INCLINATION,RA_OF_ASC_NODE,ARG_OF_PERICENTER,MEAN_ANOMALY,BSTAR,MEAN_MOTION_DOT,MEAN_MOTION_DDOT,TLE_LINE0,TLE_LINE1,TLE_LINE2,SEMIMAJOR_AXIS,PERIOD,APOGEE,PERIGEE,DECAYED
50841.0,STARLINK-3300,PAYLOAD,2022-03-19 22:00:01,15.13488009,0.000156,53.2171,211.955,46.541,12.4757,-0.039159,-0.00663984,0.0,0 STARLINK-3300,1 50841U 22001AQ  22078.91668981 -.00663984  00000-0 -39159-1 0  9996,2 50841  53.2171 211.9550 0001560  46.5410  12.4757 15.13488009  3653,6903.71,95.144,526.6519999999998,524.498,0.0
50841.0,STARLINK-3300,PAYLOAD,2022-03-20 14:00:01,15.12554801,0.000195,53.2173,208.9397,36.0788,56.1093,-0.040245,-0.00664703,0.0,0 STARLINK-3300,1 50841U 22001AQ  22079.58334491 -.00664703  00000-0 -40245-1 0  9994,2 50841  53.2173 208.9397 0001950  36.0788  56.1093 15.12554801  3623,6906.549,95.203,529.761,527.067,0.0
50841.0,STARLINK-3300,PAYLOAD,2022-03-20 22:00:01,15.12087536,0.0001616,53.2171,207.4336,48.6528,59.3744,-0.040652,-0.00662782,0.0,0 STARLINK-3300,1 50841U 22001AQ  22079.91668981 -.00662782  00000-0 -40652-1 0  9992,2 50841  53.2171 207.4336 0001616  48.6528  59.3744 15.12087536 12699,6907.972,95.233,530.953,528.72,0.0
50841.0,STARLINK-3300,PAYLOAD,2022-03-21 14:00:01,15.11154334,0.0002085,53.2173,204.4249,35.4084,102.4263,-0.04178,-0.0066363999999999,0.0,0 STARLINK-3300,1 50841U 22001AQ  22080.58334491 -.00663640  00000-0 -41780-1 0  9990,2 50841  53.2173 204.4249 0002085  35.4084 102.4263 15.11154334  3633,6910.815,95.291,534.121,531.24,0.0
50841.0,STARLINK-3300,PAYLOAD,2022-03-21 22:00:00,15.10687663,0.0001797,53.2172,202.922,44.3182,107.6106,-0.042258,-0.00662614,0.0,0 STARLINK-3300,1 50841U 22001AQ  22080.91667824 -.00662614  00000-0 -42258-1 0  9997,2 50841  53.2172 202.9220 0001797  44.3182 107.6106 15.10687663  3639,6912.239000000001,95.321,535.346,532.861,0.0
50841.0,STARLINK-3300,PAYLOAD,2022-03-22 06:00:00,15.10091645,0.0002102,53.2167,201.4201,31.7041,133.8375,-0.032013,-0.00497628,0.0,0 STARLINK-3300,1 50841U 22001AQ  22081.25001157 -.00497628  00000-0 -32013-1 0  9995,2 50841  53.2167 201.4201 0002102  31.7041 133.8375 15.10091645 12897,6914.057,95.358,537.376,534.469,0.0
50841.0,STARLINK-3300,PAYLOAD,2022-03-22 14:00:01,15.09754137,0.0002168,53.2174,199.92,34.6391,143.7964,-0.043379,-0.0066284,0.0,0 STARLINK-3300,1 50841U 22001AQ  22081.58334491 -.00662840  00000-0 -43379-1 0  9998,2 50841  53.2174 199.9200 0002168  34.6391 143.7964 15.09754137 12947,6915.0880000000025,95.38,538.452,535.453,0.0
50841.0,STARLINK-3300,PAYLOAD,2022-03-22 22:00:01,15.09225834,0.0001696999999999,53.2172,198.4207,47.8705,143.0519,-0.032806,-0.00497864,0.0,0 STARLINK-3300,1 50841U 22001AQ  22081.91668981 -.00497864  00000-0 -32806-1 0  9994,2 50841  53.2172 198.4207 0001697  47.8705 143.0519 15.09225834  3640,6916.701,95.413,539.74,537.393,0.0
50841.0,STARLINK-3300,PAYLOAD,2022-03-23 08:00:01,15.08844474,0.0001822,53.2159,196.5521,47.2642,248.3555,-0.0019049,-0.00030481,0.0,0 STARLINK-3300,1 50841U 22001AQ  22082.33334491 -.00030481  00000-0 -19049-2 0  9990,2 50841  53.2159 196.5521 0001822  47.2642 248.3555 15.08844474 13069,6917.8669999999975,95.437,540.992,538.471,0.0
50841.0,STARLINK-3300,PAYLOAD,2022-03-23 14:00:01,15.08792593,0.0002,53.2168,195.4296,38.0124,176.3133,0.0030541,0.00048591,0.0,0 STARLINK-3300,1 50841U 22001AQ  22082.58334491  .00048591  00000-0  30541-2 0  9996,2 50841  53.2168 195.4296 0002000  38.0124 176.3133 15.08792593  3658,6918.025,95.441,541.274,538.507,0.0
50841.0,STARLINK-3300,PAYLOAD,2022-03-23 22:00:00,15.08864071,0.0001966,53.2138,193.9384,43.4386,182.4764,-0.0017047999999999,-0.00027336,0.0,0 STARLINK-3300,1 50841U 22001AQ  22082.91667824 -.00027336  00000-0 -17048-2 0  9995,2 50841  53.2138 193.9384 0001966  43.4386 182.4764 15.08864071 13151,6917.807,95.436,541.0319999999998,538.312,0.0
50841.0,STARLINK-3300,PAYLOAD,2022-03-24 06:00:00,15.08849482,0.000183,53.2137,192.4407,48.9128,188.6328,0.0023249,0.00036917,0.0,0 STARLINK-3300,1 50841U 22001AQ  22083.25001157  .00036917  00000-0  23249-2 0  9997,2 50841  53.2137 192.4407 0001830  48.9128 188.6328 15.08849482 13203,6917.851,95.437,540.982,538.45,0.0
50841.0,STARLINK-3300,PAYLOAD,2022-03-24 14:00:01,15.08841411,0.0001931,53.2136,190.9461,42.2824,206.8525,-9.9944e-05,-1.879e-05,0.0,0 STARLINK-3300,1 50841U 22001AQ  22083.58334491 -.00001879  00000-0 -99944-4 0  9991,2 50841  53.2136 190.9461 0001931  42.2824 206.8525 15.08841411  3617,6917.876,95.437,541.077,538.405,0.0
50841.0,STARLINK-3300,PAYLOAD,2022-03-24 22:00:00,15.08870596,0.0001895,53.2132,189.4491,41.31,219.4261,-0.0014880999999999,-0.00023913,0.0,0 STARLINK-3300,1 50841U 22001AQ  22083.91667824 -.00023913  00000-0 -14881-2 0  9995,2 50841  53.2132 189.4491 0001895  41.3100 219.4261 15.08870596  3630,6917.7869999999975,95.436,540.9630000000002,538.341,0.0
50841.0,STARLINK-3300,PAYLOAD,2022-03-25 00:00:02,15.0886532,0.0001848,53.2133,189.0744,42.8692,310.8369,-0.0008744,-0.00014187,0.0,0 STARLINK-3300,1 50841U 22001AQ  22084.00002315 -.00014187  00000-0 -87440-3 0  9999,2 50841  53.2133 189.0744 0001848  42.8692 310.8369 15.08865320 13318,6917.803000000001,95.436,540.946,538.39,0.0
50841.0,STARLINK-3300,PAYLOAD,2022-03-25 14:00:01,15.08850112,0.0001939,53.2133,186.4567,41.2775,242.7073,-0.0013041,-0.00020989,0.0,0 STARLINK-3300,1 50841U 22001AQ  22084.58334491 -.00020989  00000-0 -13041-2 0  9997,2 50841  53.2133 186.4567 0001939  41.2775 242.7073 15.08850112  3618,6917.849,95.437,541.056,538.373,0.0
50841.0,STARLINK-3300,PAYLOAD,2022-03-25 22:00:01,15.08851244,0.0001923,53.2131,184.9595,40.6655,254.9805,-0.003122,-0.00049649,0.0,0 STARLINK-3300,1 50841U 22001AQ  22084.91668981 -.00049649  00000-0 -31220-2 0  9991,2 50841  53.2131 184.9595 0001923  40.6655 254.9805 15.08851244  3630,6917.846,95.437,541.0409999999998,538.381,0.0
50841.0,STARLINK-3300,PAYLOAD,2022-03-26 06:00:00,15.08822461,0.0001855,53.2133,183.4619,47.0913,260.0843,0.0023748,0.00037692,0.0,0 STARLINK-3300,1 50841U 22001AQ  22085.25001157  .00037692  00000-0  23748-2 0  9994,2 50841  53.2133 183.4619 0001855  47.0913 260.0843 15.08822461 13501,6917.934,95.439,541.082,538.516,0.0
50841.0,STARLINK-3300,PAYLOAD,2022-03-26 14:00:01,15.08832107,0.0002051,53.2134,181.9674,42.3343,276.4261,0.0004762,7.297e-05,0.0,0 STARLINK-3300,1 50841U 22001AQ  22085.58334491  .00007297  00000-0  47620-3 0  9994,2 50841  53.2134 181.9674 0002051  42.3343 276.4261 15.08832107  3603,6917.905,95.438,541.188,538.351,0.0
50841.0,STARLINK-3300,PAYLOAD,2022-03-26 22:00:00,15.08862815,0.0001957,53.2134,180.4701,39.9405,290.4053,-0.0044008,-0.00069695,0.0,0 STARLINK-3300,1 50841U 22001AQ  22085.91667824 -.00069695  00000-0 -44008-2 0  9998,2 50841  53.2134 180.4701 0001957  39.9405 290.4053 15.08862815 13608,6917.811,95.436,541.029,538.322,0.0
50841.0,STARLINK-3300,PAYLOAD,2022-03-27 06:00:00,15.08820701,0.000185,53.2139,178.9726,44.355,297.5872,0.0020196,0.00031983,0.0,0 STARLINK-3300,1 50841U 22001AQ  22086.25001157  .00031983  00000-0  20196-2 0  9996,2 50841  53.2139 178.9726 0001850  44.3550 297.5872 15.08820701 13655,6917.939,95.439,541.0840000000002,538.525,0.0
50841.0,STARLINK-3300,PAYLOAD,2022-03-27 14:00:01,15.08833395,0.0002095,53.2141,177.4781,40.0569,313.4792,0.0011193,0.00017567,0.0,0 STARLINK-3300,1 50841U 22001AQ  22086.58334491  .00017567  00000-0  11193-2 0  9991,2 50841  53.2141 177.4781 0002095  40.0569 313.4792 15.08833395  3626,6917.901,95.438,541.215,538.316,0.0
50841.0,STARLINK-3300,PAYLOAD,2022-03-27 22:00:01,15.0887021,0.0002006,53.2141,175.9806,39.0387,326.1551,-0.0015389,-0.00024717,0.0,0 STARLINK-3300,1 50841U 22001AQ  22086.91668981 -.00024717  00000-0 -15389-2 0  9990,2 50841  53.2141 175.9806 0002006  39.0387 326.1551 15.08870210  3626,6917.788000000001,95.436,541.0409999999998,538.265,0.0
50841.0,STARLINK-3300,PAYLOAD,2022-03-28 08:00:01,15.08775061,0.0001903,53.2164,174.1043,43.8466,65.807,0.0029653,0.00047137,0.0,0 STARLINK-3300,1 50841U 22001AQ  22087.33334491  .00047137  00000-0  29653-2 0  9991,2 50841  53.2164 174.1043 0001903  43.8466  65.8070 15.08775061 13814,6918.079000000002,95.442,541.26,538.627,0.0
50841.0,STARLINK-3300,PAYLOAD,2022-03-28 14:00:01,15.08816836,0.0002181,53.2148,172.9888,40.0648,348.3381,0.0017336,0.00027393,0.0,0 STARLINK-3300,1 50841U 22001AQ  22087.58335648  .00027393  00000-0  17336-2 0  9990,2 50841  53.2148 172.9888 0002181  40.0648 348.3381 15.08816836  3627,6917.951,95.439,541.325,538.307,0.0
50841.0,STARLINK-3300,PAYLOAD,2022-03-28 22:00:00,15.08858557,0.0002068,53.2148,171.4913,39.952,359.9643,-0.0020028,-0.00032038,0.0,0 STARLINK-3300,1 50841U 22001AQ  22087.91667824 -.00032038  00000-0 -20028-2 0  9997,2 50841  53.2148 171.4913 0002068  39.9520 359.9643 15.08858557 13907,6917.824000000001,95.436,541.119,538.258,0.0
50841.0,STARLINK-3300,PAYLOAD,2022-03-29 14:00:01,15.08824529,0.0002111,53.2152,168.4997,37.2714,25.8382,0.0011434,0.00017948,0.0,0 STARLINK-3300,1 50841U 22001AQ  22088.58334491  .00017948  00000-0  11434-2 0  9994,2 50841  53.2152 168.4997 0002111  37.2714  25.8382 15.08824529  3589,6917.928000000001,95.439,541.253,538.332,0.0
50841.0,STARLINK-3300,PAYLOAD,2022-03-29 22:00:00,15.08840731,0.0001942,53.2151,167.002,37.2055,37.4896,-0.0021623,-0.00034538,0.0,0 STARLINK-3300,1 50841U 22001AQ  22088.91667824 -.00034538  00000-0 -21623-2 0  9997,2 50841  53.2151 167.0020 0001942  37.2055  37.4896 15.08840731 14055,6917.878000000002,95.438,541.087,538.4,0.0
50841.0,STARLINK-3300,PAYLOAD,2022-03-30 12:00:00,15.08841012,0.0002053,53.2151,164.3846,35.9695,328.9978,1.6588e-05,-2.4e-07,0.0,0 STARLINK-3300,1 50841U 22001AQ  22089.50001157 -.00000024  00000-0  16588-4 0  9992,2 50841  53.2151 164.3846 0002053  35.9695 328.9978 15.08841012 14142,6917.877,95.437,541.163,538.322,0.0
